NORAD_CAT_ID,OBJECT_NAME,OBJECT_TYPE,EPOCH,MEAN_MOTION,ECCENTRICITY,INCLINATION,RA_OF_ASC_NODE,ARG_OF_PERICENTER,MEAN_ANOMALY,BSTAR,MEAN_MOTION_DOT,MEAN_MOTION_DDOT,TLE_LINE0,TLE_LINE1,TLE_LINE2,SEMIMAJOR_AXIS,PERIOD,APOGEE,PERIGEE,DECAYED
50835.0,STARLINK-3310,PAYLOAD,2023-11-22 08:54:27,15.08848269,0.000163,53.218,342.5993,88.7774,271.3405,0.00010524,1.388e-05,0.0,0 STARLINK-3310,1 50835U 22001AJ  23326.37114818  .00001388  00000-0  10524-3 0  9990,2 50835  53.2180 342.5993 0001630  88.7774 271.3405 15.08848269103702,6917.855,95.437,540.848,538.593,0.0
50835.0,STARLINK-3310,PAYLOAD,2023-11-23 00:48:19,15.08838635,0.0001658,53.2191,339.6244,92.3152,267.803,8.4389e-05,1.055e-05,0.0,0 STARLINK-3310,1 50835U 22001AJ  23327.03355604  .00001055  00000-0  84389-4 0  9996,2 50835  53.2191 339.6244 0001658  92.3152 267.8030 15.08838635105062,6917.885,95.438,540.897,538.603,0.0
50835.0,STARLINK-3310,PAYLOAD,2023-11-23 07:09:51,15.08840083,0.0001712,53.2178,338.4363,86.6247,273.4941,5.2265e-05,5.44e-06,0.0,0 STARLINK-3310,1 50835U 22001AJ  23327.29851430  .00000544  00000-0  52265-4 0  9992,2 50835  53.2178 338.4363 0001712  86.6247 273.4941 15.08840083103846,6917.88,95.438,540.929,538.561,0.0
50835.0,STARLINK-3310,PAYLOAD,2023-11-24 07:00:39,15.08839516,0.0001842,53.218,333.9748,82.91,277.2102,-2.6647e-06,-3.31e-06,0.0,0 STARLINK-3310,1 50835U 22001AJ  23328.29212075 -.00000331  00000-0 -26647-5 0  9991,2 50835  53.2180 333.9748 0001842  82.9100 277.2102 15.08839516105254,6917.882,95.438,541.021,538.473,0.0
50835.0,STARLINK-3310,PAYLOAD,2023-11-25 06:51:25,15.08846197,0.0001896,53.2183,329.5147,102.6893,257.4311,0.00017144,2.442e-05,0.0,0 STARLINK-3310,1 50835U 22001AJ  23329.28571358  .00002442  00000-0  17144-3 0  9996,2 50835  53.2183 329.5147 0001896 102.6893 257.4311 15.08846197104141,6917.861,95.437,541.038,538.415,0.0
50835.0,STARLINK-3310,PAYLOAD,2023-11-26 06:42:12,15.08854595,0.0001823,53.2161,325.0512,113.0385,247.0799,0.00028466,4.247e-05,0.0,0 STARLINK-3310,1 50835U 22001AJ  23330.27930919  .00004247  00000-0  28466-3 0  9993,2 50835  53.2161 325.0512 0001823 113.0385 247.0799 15.08854595104298,6917.836,95.437,540.962,538.44,0.0
50835.0,STARLINK-3310,PAYLOAD,2023-11-27 03:22:15,15.08808094,0.0001636,53.2175,321.1876,92.0812,268.0367,-0.00046894,-7.737e-05,0.0,0 STARLINK-3310,1 50835U 22001AJ  23331.14045729 -.00007737  00000-0 -46894-3 0  9990,2 50835  53.2175 321.1876 0001636  92.0812 268.0367 15.08808094105687,6917.978,95.44,540.975,538.711,0.0
50835.0,STARLINK-3310,PAYLOAD,2023-11-27 09:43:48,15.08809992,0.000172,53.2163,319.9943,100.2624,259.8562,-0.0003751,-6.248e-05,0.0,0 STARLINK-3310,1 50835U 22001AJ  23331.40542001 -.00006248  00000-0 -37510-3 0  9995,2 50835  53.2163 319.9943 0001720 100.2624 259.8562 15.08809992104469,6917.972,95.439,541.027,538.647,0.0
50835.0,STARLINK-3310,PAYLOAD,2023-11-28 03:13:02,15.08841692,0.0001662,53.2173,316.7269,86.7875,273.3307,0.00015098,2.116e-05,0.0,0 STARLINK-3310,1 50835U 22001AJ  23332.13405119  .00002116  00000-0  15098-3 0  9999,2 50835  53.2173 316.7269 0001662  86.7875 273.3307 15.08841692105830,6917.875,95.437,540.89,538.59,0.0
50835.0,STARLINK-3310,PAYLOAD,2023-11-28 09:34:34,15.08844537,0.0001698,53.2162,315.5315,99.9134,260.205,0.00022697,3.326e-05,0.0,0 STARLINK-3310,1 50835U 22001AJ  23332.39900956  .00003326  00000-0  22697-3 0  9993,2 50835  53.2162 315.5315 0001698  99.9134 260.2050 15.08844537104616,6917.867,95.437,540.906,538.557,0.0
50835.0,STARLINK-3310,PAYLOAD,2023-11-28 22:17:37,15.08882652,0.0002372,53.217,313.1556,89.4101,270.7163,0.0010537,0.00016541,0.0,0 STARLINK-3310,1 50835U 22001AJ  23332.92890544  .00016541  00000-0  10537-2 0  9995,2 50835  53.2170 313.1556 0002372  89.4101 270.7163 15.08882652104693,6917.75,95.435,541.256,537.974,0.0
50835.0,STARLINK-3310,PAYLOAD,2023-11-29 07:49:58,15.08818503,0.0001764,53.2172,311.3711,117.9269,242.1902,9.7379e-05,1.261e-05,0.0,0 STARLINK-3310,1 50835U 22001AJ  23333.32637659  .00001261  00000-0  97379-4 0  9990,2 50835  53.2172 311.3711 0001764 117.9269 242.1902 15.08818503106010,6917.946,95.439,541.031,538.591,0.0
50835.0,STARLINK-3310,PAYLOAD,2023-11-30 02:54:35,15.08842102,0.0001514,53.2172,307.8076,126.2545,233.8587,-0.00014296,-2.563e-05,0.0,0 STARLINK-3310,1 50835U 22001AJ  23334.12124420 -.00002563  00000-0 -14296-3 0  9990,2 50835  53.2172 307.8076 0001514 126.2545 233.8587 15.08842102106138,6917.874,95.437,540.786,538.692,0.0
50835.0,STARLINK-3310,PAYLOAD,2023-11-30 07:40:44,15.08852961,0.0001742,53.2173,306.9076,107.2415,252.8768,0.00019423,2.806e-05,0.0,0 STARLINK-3310,1 50835U 22001AJ  23334.31995957  .00002806  00000-0  19423-3 0  9997,2 50835  53.2173 306.9076 0001742 107.2415 252.8768 15.08852961106166,6917.841,95.437,540.911,538.501,0.0
50835.0,STARLINK-3310,PAYLOAD,2023-12-01 04:20:46,15.08829445,0.0001726,53.2172,303.0533,74.965,285.1533,0.00033572,5.057e-05,0.0,0 STARLINK-3310,1 50835U 22001AJ  23335.18109668  .00005057  00000-0  33572-3 0  9991,2 50835  53.2172 303.0533 0001726  74.9650 285.1533 15.08829445106298,6917.913,95.438,540.972,538.584,0.0
50835.0,STARLINK-3310,PAYLOAD,2023-12-02 01:00:46,15.08858084,0.0001623,53.218,299.174,85.29,274.8278,0.00048455,7.436e-05,0.0,0 STARLINK-3310,1 50835U 22001AJ  23336.04220463  .00007436  00000-0  48455-3 0  9993,2 50835  53.2180 299.1740 0001623  85.2900 274.8278 15.08858084106428,6917.825,95.436,540.813,538.567,0.0
50835.0,STARLINK-3310,PAYLOAD,2023-12-02 07:22:18,15.08887672,0.0001932,53.2182,297.9838,109.7991,250.321,0.0014948,0.00023613,0.0,0 STARLINK-3310,1 50835U 22001AJ  23336.30715570  .00023613  00000-0  14948-2 0  9994,2 50835  53.2182 297.9838 0001932 109.7991 250.3210 15.08887672106463,6917.735,95.435,540.936,538.263,0.0
50835.0,STARLINK-3310,PAYLOAD,2023-12-03 04:02:20,15.08821317,0.0001387,53.2167,294.1263,104.3862,255.7285,-0.00052835,-8.682e-05,0.0,0 STARLINK-3310,1 50835U 22001AJ  23337.16829057 -.00008682  00000-0 -52835-3 0  9994,2 50835  53.2167 294.1263 0001387 104.3862 255.7285 15.08821317106598,6917.937,95.439,540.762,538.843,0.0
50835.0,STARLINK-3310,PAYLOAD,2023-12-04 03:53:07,15.08848248,0.0001848,53.2177,289.6662,118.2882,241.8297,0.0010303,0.00016151,0.0,0 STARLINK-3310,1 50835U 22001AJ  23338.16189561  .00016151  00000-0  10303-2 0  9995,2 50835  53.2177 289.6662 0001848 118.2882 241.8297 15.08848248106747,6917.855,95.437,540.999,538.442,0.0
50835.0,STARLINK-3310,PAYLOAD,2023-12-04 07:03:53,15.08859416,0.0001727,53.2167,289.0697,123.7047,236.411,0.0012386,0.0001949,0.0,0 STARLINK-3310,1 50835U 22001AJ  23338.29437286  .00019490  00000-0  12386-2 0  9991,2 50835  53.2167 289.0697 0001727 123.7047 236.4110 15.08859416105504,6917.821,95.436,540.881,538.491,0.0
50835.0,STARLINK-3310,PAYLOAD,2023-12-04 21:22:21,15.08854001,0.0001667,53.2165,286.3885,115.7347,244.3817,0.00079697,0.00012423,0.0,0 STARLINK-3310,1 50835U 22001AJ  23338.89053233  .00012423  00000-0  79697-3 0  9991,2 50835  53.2165 286.3885 0001667 115.7347 244.3817 15.08854001105594,6917.838,95.437,540.856,538.549,0.0
50835.0,STARLINK-3310,PAYLOAD,2023-12-05 03:43:54,15.08851447,0.0001691,53.2169,285.1997,118.4938,241.6225,0.00016246,2.299e-05,0.0,0 STARLINK-3310,1 50835U 22001AJ  23339.15549006  .00002299  00000-0  16246-3 0  9990,2 50835  53.2169 285.1997 0001691 118.4938 241.6225 15.08851447106890,6917.845,95.437,540.88,538.541,0.0
50835.0,STARLINK-3310,PAYLOAD,2023-12-05 06:54:40,15.08848564,0.0001727,53.2172,284.6066,111.79,248.3276,8.6555e-05,1.09e-05,0.0,0 STARLINK-3310,1 50835U 22001AJ  23339.28797097  .00001090  00000-0  86555-4 0  9998,2 50835  53.2172 284.6066 0001727 111.7900 248.3276 15.08848564105659,6917.854,95.437,540.914,538.524,0.0
50835.0,STARLINK-3310,PAYLOAD,2023-12-06 03:34:41,15.08842686,0.0001811,53.218,280.7403,112.3213,247.7972,5.8891e-05,6.49e-06,0.0,0 STARLINK-3310,1 50835U 22001AJ  23340.14909245  .00000649  00000-0  58891-4 0  9996,2 50835  53.2180 280.7403 0001811 112.3213 247.7972 15.08842686107048,6917.872,95.437,540.99,538.484,0.0
50835.0,STARLINK-3310,PAYLOAD,2023-12-06 05:10:04,15.08843846,0.0001799,53.2179,280.4427,110.962,249.1565,0.00010152,1.328e-05,0.0,0 STARLINK-3310,1 50835U 22001AJ  23340.21533161  .00001328  00000-0  10152-3 0  9996,2 50835  53.2179 280.4427 0001799 110.9620 249.1565 15.08843846105793,6917.869,95.437,540.978,538.489,0.0
50835.0,STARLINK-3310,PAYLOAD,2023-12-07 03:25:28,15.08840397,0.0001622,53.2185,276.2801,93.3694,266.7484,9.06e-05,1.154e-05,0.0,0 STARLINK-3310,1 50835U 22001AJ  23341.14269649  .00001154  00000-0  90600-4 0  9990,2 50835  53.2185 276.2801 0001622  93.3694 266.7484 15.08840397107198,6917.879,95.438,540.866,538.622,0.0
50835.0,STARLINK-3310,PAYLOAD,2023-12-07 19:19:20,15.08834494,0.0001663,53.2179,273.3143,96.0396,264.0786,7.8362e-05,9.59e-06,0.0,0 STARLINK-3310,1 50835U 22001AJ  23341.80510188  .00000959  00000-0  78362-4 0  9993,2 50835  53.2179 273.3143 0001663  96.0396 264.0786 15.08834494107290,6917.897,95.438,540.913,538.612,0.0
50835.0,STARLINK-3310,PAYLOAD,2023-12-08 03:16:16,15.08836177,0.0001541,53.2177,271.827,97.7564,262.3603,4.0146e-05,3.51e-06,0.0,0 STARLINK-3310,1 50835U 22001AJ  23342.13630220  .00000351  00000-0  40146-4 0  9995,2 50835  53.2177 271.8270 0001541  97.7564 262.3603 15.08836177106087,6917.892,95.438,540.823,538.691,0.0
50835.0,STARLINK-3310,PAYLOAD,2023-12-08 19:10:09,15.08819469,0.0001618,53.2182,268.8545,82.5118,277.6058,-6.6514e-05,-1.346e-05,0.0,0 STARLINK-3310,1 50835U 22001AJ  23342.79872316 -.00001346  00000-0 -66514-4 0  9995,2 50835  53.2182 268.8545 0001618  82.5118 277.6058 15.08819469107445,6917.943,95.439,540.927,538.689,0.0
50835.0,STARLINK-3310,PAYLOAD,2023-12-09 01:31:41,15.08835836,0.0001568,53.218,267.6646,82.3372,277.7798,7.8673e-05,9.64e-06,0.0,0 STARLINK-3310,1 50835U 22001AJ  23343.06367131  .00000964  00000-0  78673-4 0  9992,2 50835  53.2180 267.6646 0001568  82.3372 277.7798 15.08835836107488,6917.893,95.438,540.843,538.673,0.0
